C/2024 G5 (Leonard),e,50.3874,316.3964,209.5682,552.5394,0.0000759,0.99465580,0.0000,09/07.0168/2024,2000,g 13.0,4.0
# From MPEC 2024-RQ6
C/2024 G6 (ATLAS),h,02/20.8811/2026,120.4579,250.9518,23.4536,1.002342,6.429314,2000,5.5,4.0
# From MPEC 2024-Q20
C/2024 G7 (ATLAS),h,02/10.1818/2025,131.5178,191.9551,289.6585,1.001914,6.027713,2000,7.0,4.0
# From MPEC 2024-Q05
A/2024 G8,e,97.4087,11.2481,249.1585,142.6363,0.0005786,0.99178029,0.0000,06/15.5984/2024,2000,g 20.0,2.0
# From MPEC 2024-JU4
P/2024 J1 (PANSTARRS),e,13.1583,321.9442,200.3473,3.808229,0.1326232,0.30762155,56.8670,01/13.0/2025,2000,g 14.5,4.0
# From MPEC 2025-AE4
C/2024 J2 (Wierzchos),e,79.2968,189.0595,143.1577,147.6718,0.0005492,0.98773710,0.0000,03/19.7779/2025,2000,g 11.5,4.0
# From MPEC 2024-UA9
C/2024 J3 (ATLAS),h,11/25.2920/2026,75.6372,285.9615,74.0916,1.000897,3.864825,2000,5.0,4.0
# From MPEC 2024-TD8
C/2024 J4 (Lemmon),e,117.5336,19.3002,127.8618,5782,0.0000022,0.99901496,0.0000,04/26.0654/2025,2000,g  8.0,4.0
# From MPEC 2024-LB4
P/2024 K1 (PANSTARRS),e,1.7862,251.6919,351.9430,6.845521,0.0550293,0.49516921,13.7009,01/13.0/2025,2000,g 13.5,4.0
# From MPEC 2024-RQ6
C/2024 L1 (PANSTARRS),e,99.1697,45.1400,171.8167,11.46288,0.0253959,0.53345989,357.4512,01/13.0/2025,2000,g 10.0,4.0
# From MPEC 2024-P23
C/2024 L2 (PANSTARRS),e,139.4880,266.2856,345.6358,467.4076,0.0000975,0.98218645,0.0000,06/13.1217/2025,2000,g  7.5,3.2
# From MPEC 2024-RQ6
C/2024 L3 (PANSTARRS),h,11/24.3666/2023,111.5926,294.9908,59.0866,1.004400,6.858187,2000,9.5,4.0
# From MPEC 2024-RQ6
P/2024 L4 (Rankin),e,10.0466,139.7779,53.7014,2.228266,0.2963149,0.69839319,81.1039,01/13.0/2025,2000,g 21.5,4.0
# From MPEC 2025-AE4
C/2024 L5 (ATLAS),h,03/10.4054/2025,166.5733,139.1744,290.5145,1.037398,3.432362,2000,9.0,4.0
# From MPEC 2025-AE4
C/2024 M1 (ATLAS),e,73.7100,76.2151,345.5970,29.92904,0.0060196,0.94308680,0.3249,01/13.0/2025,2000,g 12.0,4.0
# From MPEC 2024-RQ6
C/2024 N1 (PANSTARRS),h,10/18.8692/2025,88.7749,323.0140,91.2513,1.000958,4.398180,2000,10.5,4.0
# From MPEC 2025-AE4
C/2024 N3 (Sarneczky),h,04/11.3785/2025,88.7288,82.6078,86.8777,1.001060,5.014588,2000,8.0,4.0
# From MPEC 2025-AE4
C/2024 N4 (Sarneczky),h,01/09.9549/2025,49.7714,339.6621,116.6757,1.004534,5.397619,2000,7.5,4.0
# From MPEC 2024-PC5
C/2024 O1 (PANSTARRS),h,01/28.8386/2023,59.0763,303.3383,349.9124,1.001030,6.607805,2000,8.5,4.0
# From MPEC 2024-UA9
P/2024 O2 (PANSTARRS),e,28.9749,6.8055,310.7922,7.385009,0.0491109,0.49930282,13.1507,01/13.0/2025,2000,g 12.0,4.0
# From MPEC 2025-A40
P/2024 OC2 (PANSTARRS),e,7.6714,136.6174,258.5381,2.625798,0.2316392,0.77422981,22.1617,01/13.0/2025,2000,g 20.5,4.0
# From MPEC 2025-AE5
C/2024 PN7 (PANSTARRS),e,101.2101,358.5825,74.2753,67.29698,0.0017853,0.97734656,0.0000,12/06.4417/2024,2000,g 15.2,4.0
# From MPEC 2024-UQ8
P/2024 Q1 (PANSTARRS),e,5.0151,23.1382,284.4252,3.518075,0.1493642,0.53482002,31.7320,01/13.0/2025,2000,g 17.0,4.0
# From MPEC 2024-TD8
C/2024 Q3 (PANSTARRS),h,03/05.2348/2025,121.3763,337.2849,70.1320,1.001424,2.091469,2000,15.0,4.0
# From MPEC 2025-A40
C/2024 Q4 (PANSTARRS),e,3.3114,324.3103,132.9963,1001,0.0000311,0.99458459,0.0000,11/12.1302/2024,2000,g 10.0,4.0
# From MPEC 2024-TP3
P/2024 R1 (PANSTARRS),e,12.7364,84.9822,230.5995,3.451320,0.1537185,0.49296437,32.4808,01/13.0/2025,2000,g 18.0,4.0
# From MPEC 2024-TD8
P/2024 R2 (PANSTARRS),e,15.1054,193.0250,203.9027,3.139347,0.1771924,0.26664454,18.3074,01/13.0/2025,2000,g 15.5,4.0
# From MPEC 2024-YC7
P/2024 R3 (PANSTARRS),e,14.7292,33.2796,309.1488,3.198630,0.1722892,0.26678932,43.0881,01/13.0/2025,2000,g 15.0,4.0
# From MPEC 2024-YC7
C/2024 R4 (PANSTARRS),h,10/26.5824/2027,95.3513,345.9304,108.9779,1.002722,4.409984,2000,6.5,4.0
# From MPEC 2024-VB7
C/2024 S1 (ATLAS),e,141.9143,347.2196,69.2219,87.55029,0.0012031,0.99990906,0.0000,10/28.4860/2024,2000,g 15.5,4.0
# From MPEC 2025-A40
P/2024 S2 (Rankin),e,7.5248,8.3537,49.1898,5.042964,0.0870313,0.59387942,10.3226,01/13.0/2025,2000,g 15.0,4.0
# From MPEC 2025-AE4
P/2024 T1 (Rankin),e,17.6196,279.7095,164.8783,6.604258,0.0580722,0.65370153,6.0719,01/13.0/2025,2000,g 14.5,4.0
# From MPEC 2025-AE4
P/2024 T2 (Rankin),e,12.9284,113.0606,343.8307,6.175879,0.0642179,0.68064680,2.2897,01/13.0/2025,2000,g 16.0,4.0
# From MPEC 2025-A40
C/2024 T3 (PANSTARRS),e,53.4834,74.8318,336.8814,82.95748,0.0013044,0.95520286,359.9202,01/13.0/2025,2000,g 11.5,4.0
# From MPEC 2025-AE4
C/2024 T5 (ATLAS),h,05/06.3980/2027,52.3871,100.6824,352.4159,1.001867,3.843593,2000,5.5,4.0
# From MPEC 2025-AE4
C/2024 U1 (PANSTARRS),e,128.7524,270.2612,188.0773,551.5410,0.0000761,0.99123204,0.0000,06/30.5091/2024,2000,g 10.0,4.0
# From MPEC 2024-YO4
A/2024 U2,e,120.6197,56.0641,29.9109,14162,0.0000006,0.99942287,0.0000,01/16.8476/2026,2000,g 12.1,2.0
# From MPEC 2025-AE4
C/2024 V1 (Borisov),e,54.6213,328.1980,168.6511,232.4213,0.0002782,0.99002389,0.0000,04/04.0843/2025,2000,g 14.8,4.0
# From MPEC 2024-YC7
C/2024 V2 (Sarneczky),e,95.9718,102.2017,13.7169,39.27614,0.0040042,0.96835374,0.2810,01/13.0/2025,2000,g 19.0,4.0
# From MPEC 2024-XR9
C/2024 W1 (PANSTARRS),e,83.2051,310.7263,256.8072,43.51114,0.0034340,0.94117908,359.7757,01/13.0/2025,2000,g 15.0,4.0
# From MPEC 2024-YO9
A/2024 W2,h,02/27.7060/2025,116.6274,241.9461,168.0580,1.000086,3.719697,2000,15.6,2.0
# From MPEC 2025-AE4
C/2024 X1 (Fazekas),e,6.4574,352.3636,124.0088,9.517673,0.0335666,0.59850952,353.1869,01/13.0/2025,2000,g 11.3,4.0
# From MPEC 2025-AE4
C/2024 X2 (ATLAS),e,109.2331,122.4761,315.7776,52.55091,0.0025872,0.93002035,359.5447,01/13.0/2025,2000,g  9.6,4.0
# From MPEC 2025-A40
P/2024 X3 (PANSTARRS),e,2.9724,113.3621,352.9366,6.974857,0.0535058,0.62527429,6.9149,01/13.0/2025,2000,g 14.6,4.0
# From MPEC 2025-A40
C/2024 X4 (PANSTARRS),e,34.6687,258.9443,153.2789,10.05615,0.0309070,0.64152068,352.8338,01/13.0/2025,2000,g 12.6,4.0
# From MPEC 2025-AE4
C/2024 Y1 (Masek),e,64.7888,112.4892,238.2137,90.01353,0.0011541,0.99085157,0.0000,11/26.9138/2024,2000,g 17.6,4.0
# From MPEC 2025-AE4
A/2025 A1,h,03/12.3854/2027,33.4083,101.3297,67.9235,1.000944,5.353774,2000,11.0,2.0
# From MPEC 2025-AG2
P/2025 A2 (PANSTARRS),e,20.7335,189.3198,278.1088,5.085011,0.0859540,0.32220265,8.5075,01/13.0/2025,2000,g 13.2,4.0
# From  98, 1083
1P/Halley,e,162.2076,59.6915,112.6019,17.86518,0.0130525,0.96721490,185.2973,01/13.0/2025,2000,g  4.0,6.0
# From MPEC 2024-TP3
2P/Encke,e,11.3419,334.0141,187.2806,2.218250,0.2983241,0.84704782,133.7843,01/13.0/2025,2000,g 11.5,6.0
# From  76, 1135
3D/Biela,e,7.8877,276.1879,192.2935,3.539245,0.1480261,0.76753875,335.6940,01/13.0/2025,2000,g 11.0,6.0
# From  76, 1135
3D-A/Biela,e,7.2156,276.6835,192.1206,3.550121,0.1473463,0.76711109,6.1706,01/13.0/2025,2000,g 11.0,6.0
# From  76, 1135
3D-B/Biela,e,7.8798,276.2027,192.2546,3.539984,0.1479797,0.76783684,335.4240,01/13.0/2025,2000,g 11.0,6.0
# From MPEC 2023-FK0
4P/Faye,e,8.0051,192.9177,207.1286,3.829451,0.1315223,0.57651999,160.7024,01/13.0/2025,2000,g  8.0,6.0
# From  27, 116
5D/Brorsen,e,18.6307,94.9065,20.2999,3.158334,0.1755970,0.83783361,111.8126,01/13.0/2025,2000,g 10.5,6.0
# From MPEC 2022-WD2
6P/d'Arrest,e,19.4992,138.9506,178.0665,3.497660,0.1506738,0.61188279,182.9624,01/13.0/2025,2000,g  7.5,16.0
# From MPEC 2023-A50
7P/Pons-Winnecke,e,22.5106,93.2677,172.4395,3.401149,0.1571324,0.64202802,208.3980,01/13.0/2025,2000,g 10.0,6.0
# From MPEC 2022-HC2
8P/Tuttle,e,54.9839,270.1769,207.4716,5.704761,0.0723349,0.82063243,89.2358,01/13.0/2025,2000,g  8.0,8.0
# From MPEC 2024-YC7
9P/Tempel,e,10.8073,67.4199,184.3402,3.269840,0.1666918,0.48088756,175.0380,01/13.0/2025,2000,g  5.5,10.0
# From MPEC 2024-R10
10P/Tempel,e,12.0277,117.8023,195.5067,3.063388,0.1838236,0.53740122,255.9223,01/13.0/2025,2000,g  5.0,10.0
# From MPEC 2024-R10
11P/Tempel-Swift-LINEAR,e,14.4345,238.8651,168.0440,3.283332,0.1656654,0.57753473,249.7037,01/13.0/2025,2000,g 17.0,4.0
# From MPEC 2024-UA9
12P/Pons-Brooks,e,74.1930,255.8549,198.9968,17.20513,0.0138107,0.95461163,3.6857,01/13.0/2025,2000,g  5.0,6.0
# From MPEC 2024-UQ8
13P/Olbers,e,44.6667,85.8466,64.4183,16.87995,0.0142117,0.93036347,2.7989,01/13.0/2025,2000,g  5.0,6.0
# From MPEC 2024-LE0
14P/Wolf,e,27.9203,202.0308,159.1918,4.256641,0.1122286,0.35677163,291.0966,01/13.0/2025,2000,g  5.5,12.0
# From MPEC 2022-ED3
15P/Finlay,e,6.7895,13.7464,347.8729,3.510516,0.1498469,0.71630168,191.7767,01/13.0/2025,2000,g 12.0,4.0
# From MPEC 2022-X67
16P/Brooks,e,3.0100,138.8349,245.3653,3.661565,0.1406708,0.48584459,192.0930,01/13.0/2025,2000,g  7.5,10.0
# From MPEC 2023-J29
17P/Holmes,e,19.0093,326.6148,24.6246,3.640918,0.1418691,0.42651824,202.0141,01/13.0/2025,2000,g 10.0,6.0
# From  19, 80
18D/Perrine-Mrkos,e,17.657,158.458,238.233,3.88312,0.128805,0.5896504,17.621,01/13.0/2025,2000,g  9.0,4.0
# From MPEC 2024-YC7
19P/Borrelly,e,29.3181,74.2140,351.9987,3.608154,0.1438058,0.63787351,154.6965,01/13.0/2025,2000,g  4.5,10.0
# From MPEC 2024-YC7
21P/Giacobini-Zinner,e,32.0502,195.3324,172.9329,3.491875,0.1510484,0.71105626,349.2216,01/13.0/2025,2000,g  9.0,6.0
# From MPEC 2024-L77
22P/Kopff,e,4.7812,120.3701,162.9082,3.422379,0.1556725,0.55422585,160.3223,01/13.0/2025,2000,g  3.0,10.4
# From MPC 14747
23P/Brorsen-Metcalf,e,19.4371,311.2840,129.8797,16.93916,0.0141373,0.97260715,0.0000,05/25.6900/2059,2000,g 10.0,6.0
# From MPC110085
24P/Schaumasse,e,11.5061,78.3699,58.3998,4.056372,0.1206417,0.70813065,316.5302,01/13.0/2025,2000,g  6.5,14.0
# From NK 378
25D/Neujmin 2,e,2.8086,279.9736,244.7866,3.222386,0.1703875,0.55053551,339.8261,01/13.0/2025,2000,g 12.5,6.0
# From MPEC 2024-TP3
26P/Grigg-Skjellerup,e,22.4341,211.5360,2.1302,3.014943,0.1882718,0.64056409,72.4245,01/13.0/2025,2000,g 12.0,16.0
# From MPC 78188
27P/Crommelin,e,29.4447,250.7107,195.8362,9.179028,0.0354413,0.91964174,174.1532,01/13.0/2025,2000,g 12.0,8.0
# From MPEC 2025-A40
28P/Neujmin,e,14.2964,346.4001,347.4658,6.982252,0.0534208,0.77284097,75.0187,01/13.0/2025,2000,g  8.5,6.0
# From MPEC 2025-AE4
